{
  "type": "FeatureCollection",
  "features": [
    {
      "type": "Feature",
      "properties": {
        "norad_id": 37330,
        "name": "COSMOS 2251 DEB",
        "group": "cosmos-2251-debris",
        "lat": -8.924310648656526,
        "lon": -78.7144990228627,
        "alt_km": 729.0825483366598,
        "timestamp": "2025-12-18T14:52:08.422357+00:00",
        "meta_object_name": "COSMOS 2251 DEB",
        "meta_object_id": "1993-036BKW",
        "meta_epoch": "2025-12-15T04:39:38.606112",
        "meta_mean_motion": 14.59547518,
        "meta_eccentricity": 0.00569299,
        "meta_inclination": 74.0181,
        "meta_ra_of_asc_node": 290.4011,
        "meta_arg_of_pericenter": 138.2054,
        "meta_mean_anomaly": 222.3481,
        "meta_ephemeris_type": 0,
        "meta_classification_type": "U",
        "meta_norad_cat_id": 37330,
        "meta_element_set_no": 999,
        "meta_rev_at_epoch": 86404,
        "meta_bstar": 0.00024598877,
        "meta_mean_motion_dot": 1.165e-05,
        "meta_mean_motion_ddot": 0,
        "tle_line1": "1 37330U 93036BKW 25349.19419683  .00001165  00000+0  24599-3 0  9995",
        "tle_line2": "2 37330  74.0181 290.4011 0056929 138.2054 222.3481 14.59547518864043"
      },
      "geometry": {
        "type": "Point",
        "coordinates": [
          -78.7144990228627,
          -8.924310648656526
        ]
      }
    },
    {
      "type": "Feature",
      "properties": {
        "norad_id": 37331,
        "name": "COSMOS 2251 DEB",
        "group": "cosmos-2251-debris",
        "lat": -43.21695059572332,
        "lon": 41.55619949774541,
        "alt_km": 797.7618694888788,
        "timestamp": "2025-12-18T14:52:08.422367+00:00",
        "meta_object_name": "COSMOS 2251 DEB",
        "meta_object_id": "1993-036BKX",
        "meta_epoch": "2025-12-16T21:15:09.521568",
        "meta_mean_motion": 14.35033598,
        "meta_eccentricity": 0.00552693,
        "meta_inclination": 74.0751,
        "meta_ra_of_asc_node": 60.2873,
        "meta_arg_of_pericenter": 73.2754,
        "meta_mean_anomaly": 287.4454,
        "meta_ephemeris_type": 0,
        "meta_classification_type": "U",
        "meta_norad_cat_id": 37331,
        "meta_element_set_no": 999,
        "meta_rev_at_epoch": 84819,
        "meta_bstar": 0.00035206854,
        "meta_mean_motion_dot": 9.96e-06,
        "meta_mean_motion_ddot": 0,
        "tle_line1": "1 37331U 93036BKX 25350.88552687  .00000996  00000+0  35207-3 0  9995",
        "tle_line2": "2 37331  74.0751  60.2873 0055269  73.2754 287.4454 14.35033598848199"
      },
      "geometry": {
        "type": "Point",
        "coordinates": [
          41.55619949774541,
          -43.21695059572332
        ]
      }
    },
    {
      "type": "Feature",
      "properties": {
        "norad_id": 37336,
        "name": "COSMOS 2251 DEB",
        "group": "cosmos-2251-debris",
        "lat": -62.740662822679944,
        "lon": 174.21532338241556,
        "alt_km": 807.1327438845574,
        "timestamp": "2025-12-18T14:52:08.422377+00:00",
        "meta_object_name": "COSMOS 2251 DEB",
        "meta_object_id": "1993-036BLC",
        "meta_epoch": "2025-12-17T07:33:13.175712",
        "meta_mean_motion": 14.32760586,
        "meta_eccentricity": 0.00290162,
        "meta_inclination": 74.0414,
        "meta_ra_of_asc_node": 322.8603,
        "meta_arg_of_pericenter": 39.1846,
        "meta_mean_anomaly": 321.1399,
        "meta_ephemeris_type": 0,
        "meta_classification_type": "U",
        "meta_norad_cat_id": 37336,
        "meta_element_set_no": 999,
        "meta_rev_at_epoch": 65185,
        "meta_bstar": 6.9199726e-05,
        "meta_mean_motion_dot": 1.63e-06,
        "meta_mean_motion_ddot": 0,
        "tle_line1": "1 37336U 93036BLC 25351.31473583  .00000163  00000+0  69200-4 0  9993",
        "tle_line2": "2 37336  74.0414 322.8603 0029016  39.1846 321.1399 14.32760586651852"
      },
      "geometry": {
        "type": "Point",
        "coordinates": [
          174.21532338241556,
          -62.740662822679944
        ]
      }
    },
    {
      "type": "Feature",
      "properties": {
        "norad_id": 37340,
        "name": "COSMOS 2251 DEB",
        "group": "cosmos-2251-debris",
        "lat": -15.475392584137596,
        "lon": 90.88723552753369,
        "alt_km": 785.3868215602733,
        "timestamp": "2025-12-18T14:52:08.422387+00:00",
        "meta_object_name": "COSMOS 2251 DEB",
        "meta_object_id": "1993-036BLG",
        "meta_epoch": "2025-12-17T01:11:59.297568",
        "meta_mean_motion": 14.36928464,
        "meta_eccentricity": 0.00179655,
        "meta_inclination": 74.0254,
        "meta_ra_of_asc_node": 269.2249,
        "meta_arg_of_pericenter": 3.2012,
        "meta_mean_anomaly": 356.9253,
        "meta_ephemeris_type": 0,
        "meta_classification_type": "U",
        "meta_norad_cat_id": 37340,
        "meta_element_set_no": 999,
        "meta_rev_at_epoch": 84129,
        "meta_bstar": 0.00016814151,
        "meta_mean_motion_dot": 4.72e-06,
        "meta_mean_motion_ddot": 0,
        "tle_line1": "1 37340U 93036BLG 25351.04999187  .00000472  00000+0  16814-3 0  9996",
        "tle_line2": "2 37340  74.0254 269.2249 0017965   3.2012 356.9253 14.36928464841295"
      },
      "geometry": {
        "type": "Point",
        "coordinates": [
          90.88723552753369,
          -15.475392584137596
        ]
      }
    },
    {
      "type": "Feature",
      "properties": {
        "norad_id": 37483,
        "name": "COSMOS 2251 DEB",
        "group": "cosmos-2251-debris",
        "lat": 73.96342917257134,
        "lon": -137.4600983851351,
        "alt_km": 764.3110644631743,
        "timestamp": "2025-12-18T14:52:08.422396+00:00",
        "meta_object_name": "COSMOS 2251 DEB",
        "meta_object_id": "1993-036BLL",
        "meta_epoch": "2025-12-17T01:51:56.048256",
        "meta_mean_motion": 14.43563057,
        "meta_eccentricity": 0.00933386,
        "meta_inclination": 73.9734,
        "meta_ra_of_asc_node": 135.2418,
        "meta_arg_of_pericenter": 340.7121,
        "meta_mean_anomaly": 19.051,
        "meta_ephemeris_type": 0,
        "meta_classification_type": "U",
        "meta_norad_cat_id": 37483,
        "meta_element_set_no": 999,
        "meta_rev_at_epoch": 65342,
        "meta_bstar": 0.00018193502,
        "meta_mean_motion_dot": 6.2e-06,
        "meta_mean_motion_ddot": 0,
        "tle_line1": "1 37483U 93036BLL 25351.07773204  .00000620  00000+0  18194-3 0  9995",
        "tle_line2": "2 37483  73.9734 135.2418 0093338 340.7121  19.0510 14.43563057653422"
      },
      "geometry": {
        "type": "Point",
        "coordinates": [
          -137.4600983851351,
          73.96342917257134
        ]
      }
    },
    {
      "type": "Feature",
      "properties": {
        "norad_id": 37484,
        "name": "COSMOS 2251 DEB",
        "group": "cosmos-2251-debris",
        "lat": -55.35474884825977,
        "lon": 172.56230646544591,
        "alt_km": 749.3966440963004,
        "timestamp": "2025-12-18T14:52:08.422406+00:00",
        "meta_object_name": "COSMOS 2251 DEB",
        "meta_object_id": "1993-036BLM",
        "meta_epoch": "2025-12-18T07:38:27.570624",
        "meta_mean_motion": 14.41807924,
        "meta_eccentricity": 0.00394245,
        "meta_inclination": 73.8227,
        "meta_ra_of_asc_node": 197.9673,
        "meta_arg_of_pericenter": 231.9462,
        "meta_mean_anomaly": 306.1628,
        "meta_ephemeris_type": 0,
        "meta_classification_type": "U",
        "meta_norad_cat_id": 37484,
        "meta_element_set_no": 999,
        "meta_rev_at_epoch": 65459,
        "meta_bstar": 0.0005692289,
        "meta_mean_motion_dot": 1.85e-05,
        "meta_mean_motion_ddot": 0,
        "tle_line1": "1 37484U 93036BLM 25352.31837466  .00001850  00000+0  56923-3 0  9993",
        "tle_line2": "2 37484  73.8227 197.9673 0039424 231.9462 306.1628 14.41807924654593"
      },
      "geometry": {
        "type": "Point",
        "coordinates": [
          172.56230646544591,
          -55.35474884825977
        ]
      }
    },
    {
      "type": "Feature",
      "properties": {
        "norad_id": 37486,
        "name": "COSMOS 2251 DEB",
        "group": "cosmos-2251-debris",
        "lat": -40.37112181363662,
        "lon": 89.55537462066042,
        "alt_km": 692.1200291768655,
        "timestamp": "2025-12-18T14:52:08.422416+00:00",
        "meta_object_name": "COSMOS 2251 DEB",
        "meta_object_id": "1993-036BLP",
        "meta_epoch": "2025-12-17T02:32:52.709568",
        "meta_mean_motion": 14.133616,
        "meta_eccentricity": 0.02300438,
        "meta_inclination": 73.6918,
        "meta_ra_of_asc_node": 106.7033,
        "meta_arg_of_pericenter": 334.068,
        "meta_mean_anomaly": 206.8915,
        "meta_ephemeris_type": 0,
        "meta_classification_type": "U",
        "meta_norad_cat_id": 37486,
        "meta_element_set_no": 999,
        "meta_rev_at_epoch": 63431,
        "meta_bstar": 0.0015394853,
        "meta_mean_motion_dot": 3.693e-05,
        "meta_mean_motion_ddot": 0,
        "tle_line1": "1 37486U 93036BLP 25351.10616562  .00003693  00000+0  15395-2 0  9997",
        "tle_line2": "2 37486  73.6918 106.7033 0230043 334.0680 206.8915 14.13361600634313"
      },
      "geometry": {
        "type": "Point",
        "coordinates": [
          89.55537462066042,
          -40.37112181363662
        ]
      }
    }
  ]
}